id,Business Address,Address,City,State,Zip
1,757 Mass Ave,757 Massachusetts Ave,Cambridge,MA,
2,1369 Cambridge Street,1369 Cambridge Street,Cambridge,MA,
3,128 Massachusetts Ave,128 Massachusetts Ave,Cambridge,MA,
4,58 5th Street,58 5th Street,Cambridge,MA,
6,730 Massachusetts Ave,730 Massachusetts Ave,Cambridge,MA,
7,569 Cambridge St,569 Cambridge St,Cambridge,MA,
8,199 Concord Ave,199 Concord Ave,Cambridge,MA,
9,1755 Mass. Ave.,1755 Massachusetts Ave,Cambridge,MA,
10,744 Massachusetts Ave,744 Massachusetts Ave,Cambridge,MA,
11,291 Third St,291 Third St,Cambridge,MA,
12,1731 Mass. Ave.,1731 Massachusetts Ave,Cambridge,MA,
13,260 Concord Ave,260 Concord Ave,Cambridge,MA,
14,605 West Kendall St,605 West Kendall St,Cambridge,MA,
15,185 Broadway,185 Broadway,Cambridge,MA,
16,310 Cambridge St,310 Cambridge St,Cambridge,MA,
17,1815 Mass. Ave.,1815 Massachusetts Ave,Cambridge,MA,
18,600 Technology Square,600 Technology Square,Cambridge,MA,
19,162 Alewife Brook Pkwy,162 Alewife Brook Pkwy,Cambridge,MA,
20,2516 Mass. Ave,2516 Massachusetts Ave,Cambridge,MA,
21,638 Cambridge St,638 Cambridge St,Cambridge,MA,
22,1309 Cambridge Street,1309 Cambridge Street,Cambridge,MA,
23,40 Brattle St,40 Brattle St,Cambridge,MA,
24,25 Central Square,25 Central Square,Cambridge,MA,
25,8 Eliot St.,8 Eliot St.,Cambridge,MA,
26,691 Cambridge St,691 Cambridge St,Cambridge,MA,
27,164 Hampshire Street,164 Hampshire Street,Cambridge,MA,
28,273 Putnam Ave,273 Putnam Ave,Cambridge,MA,
29,1238 Cambridge Street,1238 Cambridge Street,Cambridge,MA,
30,1245 Cambridge Street,1245 Cambridge Street,Cambridge,MA,
31,North Cambridge,North Cambridge,Cambridge,MA,
32,111 Harvard St,111 Harvard St,Cambridge,MA,
33,50 JFK St.,50 JFK St.,Cambridge,MA,
34,286 Franklin St,286 Franklin St,Cambridge,MA,
35,22 Holyoke St.,22 Holyoke St.,Cambridge,MA,
36,1206 Massaschusetts Ave,1206 Massachusetts Ave,Cambridge,MA,
37,2030 Mass Ave.,2030 Massachusetts Ave,Cambridge,MA,
38,36 JFK St.,36 JFK St.,Cambridge,MA,
39,44 Brattle St,44 Brattle St,Cambridge,MA,
40,1 Porter Square,1 Porter Square,Cambridge,MA,
42,872 Mass. Ave.,872 Massachusetts Ave,Cambridge,MA,
43,168 Alewife Brook Pkwy,168 Alewife Brook Pkwy,Cambridge,MA,
44,345 Cambridge St,345 Cambridge St,Cambridge,MA,
45,500 Technology Square,500 Technology Square,Cambridge,MA,
46,12B Eliot St.,12B Eliot St.,Cambridge,MA,
47,163 Huron Ave,163 Huron Ave,Cambridge,MA,
48,864 Massachusetts Ave,864 Massachusetts Ave,Cambridge,MA,
49,1134 Massachusetts Ave,1134 Massachusetts Ave,Cambridge,MA,
50,91 Hampshire St.,91 Hampshire St.,Cambridge,MA,
51,40 Edwin Land Blvd,40 Edwin Land Blvd,Cambridge,MA,
52,151 Alewife Brook Pkwy,151 Alewife Brook Pkwy,Cambridge,MA,
53,125 Fawcett St,125 Fawcett St,Cambridge,MA,
54,36 JFK St,36 JFK St,Cambridge,MA,
55,350 Massachusetts Ave,350 Massachusetts Ave,Cambridge,MA,
56,739 Mass. Ave.,739 Massachusetts Ave,Cambridge,MA,
57,14A Eliot St.,14A Eliot St.,Cambridge,MA,
58,904 Massachusetts Ave,904 Massachusetts Ave,Cambridge,MA,
59,877 Cambridge St,877 Cambridge St,Cambridge,MA,
61,50 Hampshire St,50 Hampshire St,Cambridge,MA,
62,2326 Mass. Ave.,2326 Massachusetts Ave,Cambridge,MA,
63,301 Third St,301 Third St,Cambridge,MA,
64,1796 Mass. Ave.,1796 Massachusetts Ave,Cambridge,MA,
65,25 Edwin Land Blvd,25 Edwin Land Blvd,Cambridge,MA,
66,1728 Mass. Ave.,1728 Massachusetts Ave,Cambridge,MA,
67,295 Third St.,295 Third St.,Cambridge,MA,
68,364 Broadway,364 Broadway,Cambridge,MA,
70,344 Huron Ave.,344 Huron Ave.,Cambridge,MA,
71,10 Fawcett St,10 Fawcett St,Cambridge,MA,
72,319 Western Anve,319 Western Ave,Cambridge,MA,
73,691 Concord Ave.,691 Concord Ave.,Cambridge,MA,
74,245 Massachusetts Ave,245 Massachusetts Ave,Cambridge,MA,
75,13A Brattle St,13A Brattle St,Cambridge,MA,
76,1766 Mass. Ave.,1766 Massachusetts Ave,Cambridge,MA,
77,187 Hampshire Street,187 Hampshire Street,Cambridge,MA,
78,574 Cambridge St,574 Cambridge St,Cambridge,MA,
79,15 Western Ave,15 Western Ave,Cambridge,MA,
80,1 Bennett St.,1 Bennett St.,Cambridge,MA,
82,5 Cambridge Park Dri,5 Cambridge Park Dri,Cambridge,MA,
83,799 Main St,799 Main St,Cambridge,MA,
84,397 Cambridge St,397 Cambridge St,Cambridge,MA,
86,1071 Cambridge Street,1071 Cambridge Street,Cambridge,MA,
87,350 Main St,350 Main St,Cambridge,MA,
88,56 JFK St.,56 JFK St.,Cambridge,MA,
89,1350 Mass Ave.,1350 Massachusetts Ave,Cambridge,MA,
90,One Canal Park,One Canal Park,Cambridge,MA,
91,2325 Mass. Ave.,2325 Massachusetts Ave,Cambridge,MA,
92,88 Ames St,88 Ames St,Cambridge,MA,
93,40 Bow St,40 Bow St,Cambridge,MA,
94,1295 Cambridge Street,1295 Cambridge Street,Cambridge,MA,
95,1704 Mass. Ave.,1704 Massachusetts Ave,Cambridge,MA,
96,2034 Mass Ave.,2034 Massachusetts Ave,Cambridge,MA,
97,65 Mt. Auburn St,65 Mt. Auburn St,Cambridge,MA,
98,30 Brattle St,30 Brattle St,Cambridge,MA,
99,149 First St,149 First St,Cambridge,MA,
100,1776 Mass. Ave.,1776 Massachusetts Ave,Cambridge,MA,
101,356 Third St,356 Third St,Cambridge,MA,
102,57 JFK St.,57 JFK St.,Cambridge,MA,
103,201 Alewife Brooke Pkwy,201 Alewife Brook Pkwy,Cambridge,MA,
104,One Kendall Square,One Kendall Square,Cambridge,MA,
105,60 Binney Street,60 Binney Street,Cambridge,MA,
106,1350 Mass. Ave.,1350 Massachusetts Ave,Cambridge,MA,
107,279A Broadway,279A Broadway,Cambridge,MA,
108,41 Bay State Rd.,41 Bay State Rd.,Cambridge,MA,
109,563 Mass. Ave.,563 Massachusetts Ave,Cambridge,MA,
110,32 Church St,32 Church St,Cambridge,MA,
111,625 Cambridge St,625 Cambridge St,Cambridge,MA,
112,1105 Mass Ave,1105 Massachusetts Ave,Cambridge,MA,
113,1 Leighton St,1 Leighton St,Cambridge,MA,
114,2512 Mass. Ave.,2512 Massachusetts Ave,Cambridge,MA,
115,All Locations,All Locations,Cambridge,MA,
116,1208 Mass. Ave,1208 Massachusetts Ave,Cambridge,MA,
117,36 Prospect St,36 Prospect St,Cambridge,MA,
119,31 Brattle St,31 Brattle St,Cambridge,MA,
120,1077 Mass. Ave,1077 Massachusetts Ave,Cambridge,MA,
122,781 Cambridge St,781 Cambridge St,Cambridge,MA,
123,5 Pemberton St,5 Pemberton St,Cambridge,MA,
124,2465 Mass. Ave.,2465 Massachusetts Ave,Cambridge,MA,
125,407 Concord Ave,407 Concord Ave,Cambridge,MA,
126,100 Kirkland St.,100 Kirkland St.,Cambridge,MA,
127,351 Broadway,351 Broadway,Cambridge,MA,
128,468 Broadway,468 Broadway,Cambridge,MA,
129,9 Brookline St.,9 Brookline St.,Cambridge,MA,
130,One Broadway,One Broadway,Cambridge,MA,
131,414 Cambridge St,414 Cambridge St,Cambridge,MA,
132,373 Huron Ave.,373 Huron Ave.,Cambridge,MA,
133,1287 Cambridge St,1287 Cambridge St,Cambridge,MA,
134,1436 Mass Ave.,1436 Massachusetts Ave,Cambridge,MA,
135,1300 Mass Ave,1300 Massachusetts Ave,Cambridge,MA,
136,101 Main Street,101 Main Street,Cambridge,MA,
137,233 Cardinal Medeiros Avenue,233 Cardinal Medeiros Avenue,Cambridge,MA,
139,2269 Mass. Ave.,2269 Massachusetts Ave,Cambridge,MA,
140,612 Main St,612 Main St,Cambridge,MA,
141,2346 Mass. Ave.,2346 Massachusetts Ave,Cambridge,MA,
143,12 Bow Street,12 Bow Street,Cambridge,MA,
144,1105 Massachusetts Ave,1105 Massachusetts Ave,Cambridge,MA,
145,Porter Square Shopping Mall,Porter Square Shopping Mall,Cambridge,MA,
146,201 Monsignore O'Brien Highway,201 Monsignore O'Brien Highway,Cambridge,MA,
147,59A Church Stt,59A Church St,Cambridge,MA,
149,215 First Street,215 First Street,Cambridge,MA,
150,259 Masschusetts Ave,259 Massachusetts Ave,Cambridge,MA,
151,1773 Mass. Ave.,1773 Massachusetts Ave,Cambridge,MA,
153,1108 Cambridge St,1108 Cambridge St,Cambridge,MA,
154,1667 Mass. Ave.,1667 Massachusetts Ave,Cambridge,MA,
155,500 Kendall St.,500 Kendall St.,Cambridge,MA,
156,438 Massachusetts Ave,438 Massachusetts Ave,Cambridge,MA,
157,2420 Mass. Ave.,2420 Massachusetts Ave,Cambridge,MA,
158,2096 Mass Ave,2096 Massachusetts Ave,Cambridge,MA,
160,47 Mt. Auburn St,47 Mt. Auburn St,Cambridge,MA,
161,545 Concord Avenue   Cambridge MA 02138,545 Concord Avenue   Cambridge MA 02138,Cambridge,MA,
162,263 Brookline St.,263 Brookline St.,Cambridge,MA,
163,1157 Cambridge Street,1157 Cambridge Street,Cambridge,MA,
164,2020 Mass Ave.,2020 Massachusetts Ave,Cambridge,MA,
166,1199 Cambridge Street,1199 Cambridge Street,Cambridge,MA,
167,9 Broad Canal,9 Broad Canal,Cambridge,MA,
168,506 Cambridge St,506 Cambridge St,Cambridge,MA,
169,201 Monsignor O'Brien Highwy,201 Monsignor O'Brien Highwy,Cambridge,MA,
170,1724 Mass. Ave.,1724 Massachusetts Ave,Cambridge,MA,
171,202 Alewife Brook Pwky,202 Alewife Brook Pwky,Cambridge,MA,
172,Cambridge Galleria,Cambridge Galleria,Cambridge,MA,
173,738 Massachusetts Ave,738 Massachusetts Ave,Cambridge,MA,
174,2180 Mass Ave.,2180 Massachusetts Ave,Cambridge,MA,
175,6 Brattle St.,6 Brattle St.,Cambridge,MA,
176,1200 Cambridge Street,1200 Cambridge Street,Cambridge,MA,
177,75 Binney Street,75 Binney Street,Cambridge,MA,
178,300 Technology Square,300 Technology Square,Cambridge,MA,
179,82 Ames St,82 Ames St,Cambridge,MA,
180,991 Massachusetts Ave,991 Massachusetts Ave,Cambridge,MA,
181,732 Cambridge St,732 Cambridge St,Cambridge,MA,
182,1611 Mass Ave.,1611 Massachusetts Ave,Cambridge,MA,
183,127 Smith Place,127 Smith Place,Cambridge,MA,
184,3 Central Sq.,3 Central Sq.,Cambridge,MA,
185,653 Massachusetts Ave,653 Massachusetts Ave,Cambridge,MA,
186,770 Massachusetts Ave,770 Massachusetts Ave,Cambridge,MA,
187,450 Massachusetts Ave,450 Massachusetts Ave,Cambridge,MA,
188,1790 Mass. Ave.,1790 Massachusetts Ave,Cambridge,MA,
190,1712 Mass. Ave,1712 Massachusetts Ave,Cambridge,MA,
192,15 Broad Canal Way,15 Broad Canal Way,Cambridge,MA,
193,10 Eliot St.,10 Eliot St.,Cambridge,MA,
194,1794 Mass. Ave.,1794 Massachusetts Ave,Cambridge,MA,
195,538 Mass. Ave.,538 Massachusetts Ave,Cambridge,MA,
196,239 Massachusetts Ave,239 Massachusetts Ave,Cambridge,MA,
197,2100 Mass Ave,2100 Massachusetts Ave,Cambridge,MA,
199,1255 Cambridge Street,1255 Cambridge Street,Cambridge,MA,
200,1297 Cambridge Street,1297 Cambridge Street,Cambridge,MA,
201,1920 Mass. Ave.,1920 Massachusetts Ave,Cambridge,MA,
203,1105 Mass. Ave.,1105 Massachusetts Ave,Cambridge,MA,
204,199 Alewife Brook Parkway,199 Alewife Brook Parkway,Cambridge,MA,
205,1695 Massachusetts Ave.,1695 Massachusetts Ave.,Cambridge,MA,
206,428 Massachusetts Ave,428 Massachusetts Ave,Cambridge,MA,
207,616 Cambridge St,616 Cambridge St,Cambridge,MA,
208,1695 Mass. Ave.,1695 Massachusetts Ave,Cambridge,MA,
209,1149 Cambridge Street,1149 Cambridge Street,Cambridge,MA,
210,2564 Mass Ave.,2564 Massachusetts Ave,Cambridge,MA,
212,678 Massachusetts Ave,678 Massachusetts Ave,Cambridge,MA,
213,89A Norfolk St.,89A Norfolk St.,Cambridge,MA,
214,314 Third Street,314 Third Street,Cambridge,MA,
215,141 Hampshire Street,141 Hampshire Street,Cambridge,MA,
217,496 Mass. Ave,496 Massachusetts Ave,Cambridge,MA,
218,1326 Mass. Ave.,1326 Massachusetts Ave,Cambridge,MA,
219,1075 Cambridge St,1075 Cambridge St,Cambridge,MA,
220,5 Cambridge Center,5 Cambridge Center,Cambridge,MA,
221,47 Palmer St,47 Palmer St,Cambridge,MA,
222,233 River Street,233 River Street,Cambridge,MA,
223,1924 Mass. Ave.,1924 Massachusetts Ave,Cambridge,MA,
224,151 Columbia St.,151 Columbia St.,Cambridge,MA,
225,11 Broad Canal Way,11 Broad Canal Way,Cambridge,MA,
226,746 Massachusetts Ave.,746 Massachusetts Ave.,Cambridge,MA,
228,1287 Cambridge Street,1287 Cambridge Street,Cambridge,MA,
229,247 Cambridge St,247 Cambridge St,Cambridge,MA,
230,494A Cambridge St,494A Cambridge St,Cambridge,MA,
231,498 Cambridge St,498 Cambridge St,Cambridge,MA,
232,853 Main St,853 Main St,Cambridge,MA,
233,368 Huron Ave.,368 Huron Ave.,Cambridge,MA,
234,1001 Massachusetts Ave,1001 Massachusetts Ave,Cambridge,MA,
235,35 Brattle St,35 Brattle St,Cambridge,MA,
236,795 Main St,795 Main St,Cambridge,MA,
237,0 Harvard Square,0 Harvard Square,Cambridge,MA,
238,501 Kendall St.,501 Kendall St.,Cambridge,MA,
239,441 Cambridge St,441 Cambridge St,Cambridge,MA,
240,2265 Mass. Ave.,2265 Massachusetts Ave,Cambridge,MA,
242,50 Prospect St,50 Prospect St,Cambridge,MA,
243,225 Cambridge St,225 Cambridge St,Cambridge,MA,
244,285 Green St,285 Green St,Cambridge,MA,
245,300B Athenaeum Street,300B Athenaeum Street,Cambridge,MA,
246,955 Mass Ave. only,955 Massachusetts Ave only,Cambridge,MA,
247,45.5 My. Auburn St,45.5 Mount Auburn St,Cambridge,MA,
248,910 Mass. Ave.,910 Massachusetts Ave,Cambridge,MA,
249,536 Massachusetts Ave.,536 Massachusetts Ave.,Cambridge,MA,
250,1780 Mass. Ave.,1780 Massachusetts Ave,Cambridge,MA,
252,2072 Mass Ave,2072 Massachusetts Ave,Cambridge,MA,
254,75 First Street,75 First Street,Cambridge,MA,
255,2327 Mass. Ave.,2327 Massachusetts Ave,Cambridge,MA,
256,202 Third Street,202 Third Street,Cambridge,MA,
257,401 Massachusetts Ave.,401 Massachusetts Ave.,Cambridge,MA,
258,200 Elm Street North,200 Elm Street North,Cambridge,MA,
259,26 Brattle St,26 Brattle St,Cambridge,MA,
260,82 Mt. Auburn St,82 Mt. Auburn St,Cambridge,MA,
261,272 Brookline St.,272 Brookline St.,Cambridge,MA,
262,1033 Massachusetts Ave.,1033 Massachusetts Ave.,Cambridge,MA,
263,571 Massachusetts Ave.,571 Massachusetts Ave.,Cambridge,MA,
264,2000 Mass. Ave.,2000 Massachusetts Ave,Cambridge,MA,
265,276 Broadway,276 Broadway,Cambridge,MA,
266,2067 Mass. Ave.,2067 Massachusetts Ave,Cambridge,MA,
267,1357 Cambridge Street,1357 Cambridge Street,Cambridge,MA,
268,2370 Mass. Ave.,2370 Massachusetts Ave,Cambridge,MA,
269,73 Ames Street,73 Ames Street,Cambridge,MA,
270,950 Massachusetts Ave,950 Massachusetts Ave,Cambridge,MA,
272,222 Broadway,222 Broadway,Cambridge,MA,
274,2480 Mass. Ave.,2480 Massachusetts Ave,Cambridge,MA,
275,616 Mass Ave.,616 Massachusetts Ave,Cambridge,MA,
276,1001 Mass. Ave.,1001 Massachusetts Ave,Cambridge,MA,
277,261 Cambridge St,261 Cambridge St,Cambridge,MA,
278,561 Cambridge St,561 Cambridge St,Cambridge,MA,
279,375 Huron Ave.,375 Huron Ave.,Cambridge,MA,
280,PO Box 390148,PO Box 390148,Cambridge,MA,
281,145 Huron Ave,145 Huron Ave,Cambridge,MA,
282,83 Mt. Auburn St,83 Mt. Auburn St,Cambridge,MA,
283,1687 Mass. Ave,1687 Massachusetts Ave,Cambridge,MA,
284,319 Massachusetts Ave,319 Massachusetts Ave,Cambridge,MA,
285,65 JFK St.,65 JFK St.,Cambridge,MA,
286,2384 Mass. Ave.,2384 Massachusetts Ave,Cambridge,MA,
287,594 Cambridge St,594 Cambridge St,Cambridge,MA,
289,54 Church St.,54 Church St.,Cambridge,MA,
290,370 Huron Ave.,370 Huron Ave.,Cambridge,MA,
291,766B Cambridge St,766B Cambridge St,Cambridge,MA,
292,1868 Mass. Ave.,1868 Massachusetts Ave,Cambridge,MA,
293,52 New Street,52 New Street,Cambridge,MA,
294,350 Third Street,350 Third Street,Cambridge,MA,
295,12 Eliot St.,12 Eliot St.,Cambridge,MA,
297,746 Cambridge St,746 Cambridge St,Cambridge,MA,
298,444 Cambridge St,444 Cambridge St,Cambridge,MA,
299,1784 Mass. Ave.,1784 Massachusetts Ave,Cambridge,MA,
300,2528 Mass Ave.,2528 Massachusetts Ave,Cambridge,MA,
301,21 Brattle St.,21 Brattle St.,Cambridge,MA,
302,1304 Mass Ave,1304 Massachusetts Ave,Cambridge,MA,
303,875 Cambridge St,875 Cambridge St,Cambridge,MA,
305,20 Prospect St,20 Prospect St,Cambridge,MA,
307,271 Brookline St.,271 Brookline St.,Cambridge,MA,
308,1305 Cambridge Street,1305 Cambridge Street,Cambridge,MA,
309,763 Massachusetts Ave.,763 Massachusetts Ave.,Cambridge,MA,
310,546 Massachusetts Ave,546 Massachusetts Ave,Cambridge,MA,
314,1672 Mass. Ave.,1672 Massachusetts Ave,Cambridge,MA,
315,1132 Massachusetts Ave,1132 Massachusetts Ave,Cambridge,MA,
316,2234 Mass. Ave.,2234 Massachusetts Ave,Cambridge,MA,
317,875 Main St,875 Main St,Cambridge,MA,
318,5 Craigie Circle,5 Craigie Circle,Cambridge,MA,
319,94 Hampshire Street,94 Hampshire Street,Cambridge,MA,
320,244 Huron Ave,244 Huron Ave,Cambridge,MA,
322,889 Cambridge St,889 Cambridge St,Cambridge,MA,
323,157 Hampshire Street,157 Hampshire Street,Cambridge,MA,
324,2310 Mass. Ave.,2310 Massachusetts Ave,Cambridge,MA,
326,1798 Mass. Ave,1798 Massachusetts Ave,Cambridge,MA,
327,2408 Mass. Ave.,2408 Massachusetts Ave,Cambridge,MA,
329,300 Third Street,300 Third Street,Cambridge,MA,
330,2230 Mass. Ave.,2230 Massachusetts Ave,Cambridge,MA,
331,1939 Mass. Ave.,1939 Massachusetts Ave,Cambridge,MA,
332,200 Broadway,200 Broadway,Cambridge,MA,
333,1343 Cambridge Street,1343 Cambridge Street,Cambridge,MA,
334,2038 Mass Ave.,2038 Massachusetts Ave,Cambridge,MA,
335,231 Alewife Brook Parkway,231 Alewife Brook Parkway,Cambridge,MA,
336,1764 Mass. Ave,1764 Massachusetts Ave,Cambridge,MA,
337,1682 Mass Ave.,1682 Massachusetts Ave,Cambridge,MA,
338,450 Kendall Street,450 Kendall Street,Cambridge,MA,
339,987 Massachusetts Ave,987 Massachusetts Ave,Cambridge,MA,
340,777 Cambridge Street.,777 Cambridge Street.,Cambridge,MA,
341,52 JFK St.,52 JFK St.,Cambridge,MA,
342,520 Massachusetts Ave.,520 Massachusetts Ave.,Cambridge,MA,
343,435 Cambridge St,435 Cambridge St,Cambridge,MA,
344,150 First St,150 First St,Cambridge,MA,
345,1230 Mass Ave,1230 Massachusetts Ave,Cambridge,MA,
346,90 Sherman St,90 Sherman St,Cambridge,MA,
347,364 Huron Ave.,364 Huron Ave.,Cambridge,MA,
348,49 River St,49 River St,Cambridge,MA,
349,2366 Mass. Ave.,2366 Massachusetts Ave,Cambridge,MA,
350,89 Winthrop St.,89 Winthrop St.,Cambridge,MA,
351,6 Plympton St,6 Plympton St,Cambridge,MA,
352,1220 Cambridge Street,1220 Cambridge Street,Cambridge,MA,
353,1760 Mass. Ave.,1760 Massachusetts Ave,Cambridge,MA,
355,128 Smith Place,128 Smith Place,Cambridge,MA,
356,90 Hampshire St.,90 Hampshire St.,Cambridge,MA,
357,2400 Mass. Ave.,2400 Massachusetts Ave,Cambridge,MA,
358,90 Hampshire St,90 Hampshire St,Cambridge,MA,
359,759 Massachusetts Ave,759 Massachusetts Ave,Cambridge,MA,
361,1768 Mass. Ave.,1768 Massachusetts Ave,Cambridge,MA,
362,2300 Mass. Ave,2300 Massachusetts Ave,Cambridge,MA,
363,5 Arrow St,5 Arrow St,Cambridge,MA,
364,1760 Mass Ave,1760 Massachusetts Ave,Cambridge,MA,
365,248 Huron Ave,248 Huron Ave,Cambridge,MA,
366,117 Hampshire Street,117 Hampshire Street,Cambridge,MA,
367,288 Harvard St.,288 Harvard St.,Cambridge,MA,
368,997 Massachusetts Ave,997 Massachusetts Ave,Cambridge,MA,
369,1400 Mass Ave,1400 Massachusetts Ave,Cambridge,MA,
371,1706 Mass. Ave.,1706 Massachusetts Ave,Cambridge,MA,
373,1256 Mass. Ave.,1256 Massachusetts Ave,Cambridge,MA,
375,186 Hampshire Street,186 Hampshire Street,Cambridge,MA,
376,1664 Mass. Ave.,1664 Massachusetts Ave,Cambridge,MA,
379,288 Green St,288 Green St,Cambridge,MA,
380,1111 Cambridge Street,1111 Cambridge Street,Cambridge,MA,
381,35 White St.,35 White St.,Cambridge,MA,
382,294 Massachusetts Ave,294 Massachusetts Ave,Cambridge,MA,
383,143 First St,143 First St,Cambridge,MA,
387,208 Concord Ave,208 Concord Ave,Cambridge,MA,
388,1663 Mass Ave.,1663 Massachusetts Ave,Cambridge,MA,
390,1271 Cambridge Street,1271 Cambridge Street,Cambridge,MA,
392,565 Massachusetts Ave.,565 Massachusetts Ave.,Cambridge,MA,
393,8 Bow St,8 Bow St,Cambridge,MA,
394,581 Mass. Ave.,581 Massachusetts Ave,Cambridge,MA,
395,1702 Mass. Ave.,1702 Massachusetts Ave,Cambridge,MA,
396,1238 Mass. Ave.,1238 Massachusetts Ave,Cambridge,MA,
398,1680 Mass. Ave.,1680 Massachusetts Ave,Cambridge,MA,
399,282 Concord Ave,282 Concord Ave,Cambridge,MA,
400,2 Ellery St,2 Ellery St,Cambridge,MA,
401,1654 Mass. Ave.,1654 Massachusetts Ave,Cambridge,MA,
402,361 Cambridge St,361 Cambridge St,Cambridge,MA,
403,130 Fawcett St,130 Fawcett St,Cambridge,MA,
405,1426 Cambridge Street,1426 Cambridge Street,Cambridge,MA,
406,23 Bay State Road,23 Bay State Road,Cambridge,MA,
407,161 Huron Ave,161 Huron Ave,Cambridge,MA,
408,40 Prospect St,40 Prospect St,Cambridge,MA,
409,566 Cambridge St,566 Cambridge St,Cambridge,MA,
410,17 Central Square,17 Central Square,Cambridge,MA,
411,243 Hampshire Street,243 Hampshire Street,Cambridge,MA,
412,1414 Cambridge Street,1414 Cambridge Street,Cambridge,MA,
413,1337 Cambridge Street,1337 Cambridge Street,Cambridge,MA,
414,1298 Cambridge Street,1298 Cambridge Street,Cambridge,MA,
415,1226 Cambridge Street,1226 Cambridge Street,Cambridge,MA,
416,1110 Massachusetts Ave,1110 Massachusetts Ave,Cambridge,MA,
417,24 Irving St.,24 Irving St.,Cambridge,MA,
418,1168 Massachusetts Ave,1168 Massachusetts Ave,Cambridge,MA,
420,169 Harvard Street,169 Harvard Street,Cambridge,MA,
421,1320 Mass Ave,1320 Massachusetts Ave,Cambridge,MA,
422,340 Huron Avve.,340 Huron Ave.,Cambridge,MA,
423,1312 Mass. Ave.,1312 Massachusetts Ave,Cambridge,MA,
424,1937 Mass. Ave.,1937 Massachusetts Ave,Cambridge,MA,
426,298 Concord Ave,298 Concord Ave,Cambridge,MA,
428,42 Prospect St,42 Prospect St,Cambridge,MA,
429,2388 Mass. Ave.,2388 Massachusetts Ave,Cambridge,MA,
430,16 Prospect St,16 Prospect St,Cambridge,MA,
431,1792 Mass. Ave.,1792 Massachusetts Ave,Cambridge,MA,
432,356 Third Street,356 Third Street,Cambridge,MA,
433,131 Sherman St,131 Sherman St,Cambridge,MA,
434,1765 Mass. Ave.,1765 Massachusetts Ave,Cambridge,MA,
435,1725 Mass. Ave.,1725 Massachusetts Ave,Cambridge,MA,
436,2374 Mass. Ave.,2374 Massachusetts Ave,Cambridge,MA,
437,1120 Massachusetts Ave,1120 Massachusetts Ave,Cambridge,MA,
438,1740 Mass. Ave.,1740 Massachusetts Ave,Cambridge,MA,
439,96 Ames Street,96 Ames Street,Cambridge,MA,
440,350 Main Street,350 Main Street,Cambridge,MA,
441,201 Third Street,201 Third Street,Cambridge,MA,
442,201 Broadway,201 Broadway,Cambridge,MA,
443,365 Binney Street,365 Binney Street,Cambridge,MA,
444,52 Brattle St,52 Brattle St,Cambridge,MA,
445,2362 Mass. Ave.,2362 Massachusetts Ave,Cambridge,MA,
447,21 Dunster St,21 Dunster St,Cambridge,MA,
448,220 Concord Ave,220 Concord Ave,Cambridge,MA,
449,284 Broadway,284 Broadway,Cambridge,MA,
450,489 Concord Ave,489 Concord Ave,Cambridge,MA,
451,270 Concord Ave,270 Concord Ave,Cambridge,MA,
454,480 Cambridge St,480 Cambridge St,Cambridge,MA,
455,425-429 Cambridge St,425-429 Cambridge St,Cambridge,MA,
456,657 Cambridge St.,657 Cambridge St.,Cambridge,MA,
457,1316 Mass Ave,1316 Massachusetts Ave,Cambridge,MA,
458,355 Main Street,355 Main Street,Cambridge,MA,
460,1348 Cambridge Street,1348 Cambridge Street,Cambridge,MA,
462,44 Prospect St,44 Prospect St,Cambridge,MA,
463,575 Massachusetts Ave,575 Massachusetts Ave,Cambridge,MA,
464,50 Binney Street,50 Binney Street,Cambridge,MA,
465,1353 Cambridge Street,1353 Cambridge Street,Cambridge,MA,
466,2 Education Circle,2 Education Circle,Cambridge,MA,
467,102 Oxford St,102 Oxford St,Cambridge,MA,
468,2255 Mass. Ave.,2255 Massachusetts Ave,Cambridge,MA,
469,505 Massachusetts Ave,505 Massachusetts Ave,Cambridge,MA,
470,765 Massachusetts Ave,765 Massachusetts Ave,Cambridge,MA,
473,29 Church St,29 Church St,Cambridge,MA,
474,64 Brattle St,64 Brattle St,Cambridge,MA,
475,87 Blanchard Rd,87 Blanchard Rd,Cambridge,MA,
476,635 Cambridge St,635 Cambridge St,Cambridge,MA,
477,40 Brattle St #3,40 Brattle St #3,Cambridge,MA,
478,2 Arrow St,2 Arrow St,Cambridge,MA,
479,92 Hampshire St,92 Hampshire St,Cambridge,MA,
480,473 Cambridge St,473 Cambridge St,Cambridge,MA,
481,95 First Street,95 First Street,Cambridge,MA,
482,660 Cambridge St,660 Cambridge St,Cambridge,MA,
483,1 Shepard St,1 Shepard St,Cambridge,MA,
484,272 Broadway,272 Broadway,Cambridge,MA,
485,694 Massachusetts Ave,694 Massachusetts Ave,Cambridge,MA,
486,520 Cambridge St,520 Cambridge St,Cambridge,MA,
487,2323 Mass. Ave.,2323 Massachusetts Ave,Cambridge,MA,
488,1093 Cambridge Street,1093 Cambridge Street,Cambridge,MA,
489,6 Concord Lane,6 Concord Lane,Cambridge,MA,
490,524 Massachusetts Ave.,524 Massachusetts Ave.,Cambridge,MA,
491,1685 Mass . Ave.,1685 Massachusetts Ave,Cambridge,MA,
492,781 Main St,781 Main St,Cambridge,MA,
493,361 Huron Ave.,361 Huron Ave.,Cambridge,MA,
495,704 Massachusetts Ave,704 Massachusetts Ave,Cambridge,MA,
496,382 Huron Ave.,382 Huron Ave.,Cambridge,MA,
499,350 Huron Ave.,350 Huron Ave.,Cambridge,MA,
500,424 Massachusetts Ave.,424 Massachusetts Ave.,Cambridge,MA,
501,1156 Massachusetts Ave,1156 Massachusetts Ave,Cambridge,MA,
502,1144 Cambridge Street,1144 Cambridge Street,Cambridge,MA,
503,464 Masachusetts Ave,464 Masachusetts Ave,Cambridge,MA,
504,906 Massachusetts Ave,906 Massachusetts Ave,Cambridge,MA,
505,736 Mass. Ave.,736 Massachusetts Ave,Cambridge,MA,
506,2107 Mass. Ave.,2107 Massachusetts Ave,Cambridge,MA,
507,370 1/2 Huron Ave.,370 1/2 Huron Ave.,Cambridge,MA,
508,621 Cambridge St,621 Cambridge St,Cambridge,MA,
509,4 Cambridge Center 1st floor,4 Cambridge Center 1st floor,Cambridge,MA,
512,472-480 Massachusetts Ave,472-480 Massachusetts Ave,Cambridge,MA,
513,315 Massachusetts Ave,315 Massachusetts Ave,Cambridge,MA,
514,1124 Cambridge Street,1124 Cambridge Street,Cambridge,MA,
515,896 Massachusetts Ave,896 Massachusetts Ave,Cambridge,MA,
516,11 Dunster St,11 Dunster St,Cambridge,MA,
517,6 Church St,6 Church St,Cambridge,MA,
518,321 Massachusetts Ave,321 Massachusetts Ave,Cambridge,MA,
519,2368 Mass. Ave.,2368 Massachusetts Ave,Cambridge,MA,
520,80 Broadway,80 Broadway,Cambridge,MA,
521,265 Massachusetts Ave,265 Massachusetts Ave,Cambridge,MA,
522,301 Massachusetts Ave,301 Massachusetts Ave,Cambridge,MA,
523,1678 Mass. Ave.,1678 Massachusetts Ave,Cambridge,MA,
525,2615 Mass. Ave.,2615 Massachusetts Ave,Cambridge,MA,
526,358 Huron Ave.,358 Huron Ave.,Cambridge,MA,
527,2304 Mass. Ave.,2304 Massachusetts Ave,Cambridge,MA,
528,544 Cambridge St,544 Cambridge St,Cambridge,MA,
529,2098 Mass Ave,2098 Massachusetts Ave,Cambridge,MA,
530,1128 Cambridge St.,1128 Cambridge St.,Cambridge,MA,
531,1625 Cambridge St.,1625 Cambridge St.,Cambridge,MA,
532,29 Brattle St,29 Brattle St,Cambridge,MA,
533,377 Walden St,377 Walden St,Cambridge,MA,
534,1646 Mass. Ave.,1646 Massachusetts Ave,Cambridge,MA,
536,625 West Kendall Street,625 West Kendall Street,Cambridge,MA,
537,26 Church St,26 Church St,Cambridge,MA,
538,2348 Mass. Ave.,2348 Massachusetts Ave,Cambridge,MA,
539,1246 Mass Ave,1246 Massachusetts Ave,Cambridge,MA,
540,228 Broadway,228 Broadway,Cambridge,MA,
541,2404 Mass Ave.,2404 Massachusetts Ave,Cambridge,MA,
543,41 Second St,41 Second St,Cambridge,MA,
544,1008 Cambridge St,1008 Cambridge St,Cambridge,MA,
545,297 Massachusetts Ave,297 Massachusetts Ave,Cambridge,MA,
546,159 Hampshire Street,159 Hampshire Street,Cambridge,MA,
547,2501 Mass. Ave.,2501 Massachusetts Ave,Cambridge,MA,
548,2032 Mass Ave.,2032 Massachusetts Ave,Cambridge,MA,
549,403 Massachusetts Ave.,403 Massachusetts Ave.,Cambridge,MA,
550,622 Cambridge St,622 Cambridge St,Cambridge,MA,
554,1945 Mass. Ave.,1945 Massachusetts Ave,Cambridge,MA,
555,286 Broadway,286 Broadway,Cambridge,MA,
559,1771 Mass. Ave.,1771 Massachusetts Ave,Cambridge,MA,
560,769 Concord Ave,769 Concord Ave,Cambridge,MA,
561,2410 Mass. Ave.,2410 Massachusetts Ave,Cambridge,MA,
562,2259 Mass Ave.,2259 Massachusetts Ave,Cambridge,MA,
563,12 Arrow St,12 Arrow St,Cambridge,MA,
564,181 Mass. Ave,181 Massachusetts Ave,Cambridge,MA,
566,30 Dunster St.,30 Dunster St.,Cambridge,MA,
567,11 Springfield Street,11 Springfield Street,Cambridge,MA,
568,134 Hampshire Street,134 Hampshire Street,Cambridge,MA,
569,43 Gore St,43 Gore St,Cambridge,MA,
571,819B Cambridge St,819B Cambridge St,Cambridge,MA,
572,1759 Mass. Ave,1759 Massachusetts Ave,Cambridge,MA,
573,270 Third Street,270 Third Street,Cambridge,MA,
574,91 Blachard Rd,91 Blanchard Rd,Cambridge,MA,
576,1432 Mass. Ave.,1432 Massachusetts Ave,Cambridge,MA,
577,186 1/2 Hampshire Street,186 1/2 Hampshire Street,Cambridge,MA,
578,599 Cambridge St,599 Cambridge St,Cambridge,MA,
579,260 Walden St,260 Walden St,Cambridge,MA,
580,310 Massachusetts Ave,310 Massachusetts Ave,Cambridge,MA,
581,3 Church St.,3 Church St.,Cambridge,MA,
582,928 Massachusetts Ave,928 Massachusetts Ave,Cambridge,MA,
583,4 Pleasant St,4 Pleasant St,Cambridge,MA,
585,1802 Mass Ave.,1802 Massachusetts Ave,Cambridge,MA,
586,14 Warren St,14 Warren St,Cambridge,MA,
587,59 JFK St.,59 JFK St.,Cambridge,MA,
589,91 Winthrop St.,91 Winthrop St.,Cambridge,MA,
591,1900 Mass Ave.,1900 Massachusetts Ave,Cambridge,MA,
594,2225 Mass. Ave,2225 Massachusetts Ave,Cambridge,MA,
595,878 Massachusetts Ave,878 Massachusetts Ave,Cambridge,MA,
596,20 Pearl St,20 Pearl St,Cambridge,MA,
597,92 Mt. Auburn St.,92 Mt. Auburn St.,Cambridge,MA,
598,160 Alewife Brook Pkwy,160 Alewife Brook Pkwy,Cambridge,MA,
599,512 Massachusetts Ave.,512 Massachusetts Ave.,Cambridge,MA,
600,59 Parker St.,59 Parker St.,Cambridge,MA,
601,743 Massachusetts Ave.,743 Massachusetts Ave.,Cambridge,MA,
603,1132 Cambridge Street,1132 Cambridge Street,Cambridge,MA,
604,74 Winthrop St.,74 Winthrop St.,Cambridge,MA,
605,12 Springfield Street,12 Springfield Street,Cambridge,MA,
607,35 Sacramento St.,35 Sacramento St.,Cambridge,MA,
608,1722 Mass. Ave.,1722 Massachusetts Ave,Cambridge,MA,
612,783 Main St,783 Main St,Cambridge,MA,
614,163 Hampshire Street,163 Hampshire Street,Cambridge,MA,
615,Harvard Science Ctr./1 Education Ctr,Harvard Science Ctr./1 Education Ctr,Cambridge,MA,
616,225 Hampshire Street,225 Hampshire Street,Cambridge,MA,
617,1166 Cambridge Street,1166 Cambridge Street,Cambridge,MA,
618,1050 Massachusetts Ave,1050 Massachusetts Ave,Cambridge,MA,
619,5 Brookline St,5 Brookline St,Cambridge,MA,
620,26 New Street,26 New Street,Cambridge,MA,
622,2382 Mass. Ave.,2382 Massachusetts Ave,Cambridge,MA,
623,1253 Cambridge Street,1253 Cambridge Street,Cambridge,MA,
624,24 Pearl St,24 Pearl St,Cambridge,MA,
625,2302 Mass. Ave.,2302 Massachusetts Ave,Cambridge,MA,
626,23 Church St,23 Church St,Cambridge,MA,
627,17 Brattle St,17 Brattle St,Cambridge,MA,
630,266 Concord Ave,266 Concord Ave,Cambridge,MA,
631,614 Main Street,614 Main Street,Cambridge,MA,
632,125 CambridgePark Dr,125 CambridgePark Dr,Cambridge,MA,
633,1193 Cambridge Street,1193 Cambridge Street,Cambridge,MA,
634,1700 Mass. Ave.,1700 Massachusetts Ave,Cambridge,MA,
635,1640 Mass. Ave.,1640 Massachusetts Ave,Cambridge,MA,
637,2154 Mass. Ave.,2154 Massachusetts Ave,Cambridge,MA,
638,698 Massachusetts Ave,698 Massachusetts Ave,Cambridge,MA,
639,292 Massachusetts Ave,292 Massachusetts Ave,Cambridge,MA,
640,782 Main St,782 Main St,Cambridge,MA,
641,738 Cambridge St,738 Cambridge St,Cambridge,MA,
642,251 Cambridge St,251 Cambridge St,Cambridge,MA,
643,7 Temple Place,7 Temple Place,Cambridge,MA,
644,14 JFK St,14 JFK St,Cambridge,MA,
645,26 New St.,26 New St.,Cambridge,MA,
646,1334 Cambridge Street,1334 Cambridge Street,Cambridge,MA,
647,983 Massachusetts Ave,983 Massachusetts Ave,Cambridge,MA,
648,366 Huron Ave.,366 Huron Ave.,Cambridge,MA,
650,202 Hampshire Street,202 Hampshire Street,Cambridge,MA,
651,1871 Mass. Ave.,1871 Massachusetts Ave,Cambridge,MA,
657,200 Concord Ave,200 Concord Ave,Cambridge,MA,
658,51 Plymouth Street,51 Plymouth Street,Cambridge,MA,
659,23 Arrow St,23 Arrow St,Cambridge,MA,
660,233 Alewife Brook Pkwy,233 Alewife Brook Pkwy,Cambridge,MA,
661,1232 Cambridge Street,1232 Cambridge Street,Cambridge,MA,
662,415 Main Street,415 Main Street,Cambridge,MA,
663,89 Second Street,89 Second Street,Cambridge,MA,
664,1276 Mass. Ave.,1276 Massachusetts Ave,Cambridge,MA,
665,650 East Kendall St,650 East Kendall St,Cambridge,MA,
666,731 Massachusetts Ave,731 Massachusetts Ave,Cambridge,MA,
667,89 Blanchard Rd,89 Blanchard Rd,Cambridge,MA,
668,148 First St,148 First St,Cambridge,MA,
671,735 Massachusetts Ave.,735 Massachusetts Ave.,Cambridge,MA,
672,7 Broad Canal Way,7 Broad Canal Way,Cambridge,MA,
673,58 JFK St.,58 JFK St.,Cambridge,MA,
674,2376 Mass. Ave.,2376 Massachusetts Ave,Cambridge,MA,
675,93 First St,93 First St,Cambridge,MA,
676,2046 Mass Ave.,2046 Massachusetts Ave,Cambridge,MA,
678,390 Third St,390 Third St,Cambridge,MA,
680,1132 Mass. Ave.,1132 Massachusetts Ave,Cambridge,MA,
681,645 Cambridge St,645 Cambridge St,Cambridge,MA,
682,145 First St,145 First St,Cambridge,MA,
683,1736 Mass. Ave.,1736 Massachusetts Ave,Cambridge,MA,
684,424 Cambridge St,424 Cambridge St,Cambridge,MA,
685,528 Cambridge St,528 Cambridge St,Cambridge,MA,
687,196 Massachusetts Ave,196 Massachusetts Ave,Cambridge,MA,
688,1 Belmont St,1 Belmont St,Cambridge,MA,
689,10 Brookline St,10 Brookline St,Cambridge,MA,
691,373 Walden St,373 Walden St,Cambridge,MA,
693,24 Holyoke St.,24 Holyoke St.,Cambridge,MA,
694,2257 Mass. Ave.,2257 Massachusetts Ave,Cambridge,MA,
695,151 Cambridge St.,151 Cambridge St.,Cambridge,MA,
696,186 Alewife Brook Pkwy,186 Alewife Brook Pkwy,Cambridge,MA,
697,57 JFK St,57 JFK St,Cambridge,MA,
699,4 Central Square,4 Central Square,Cambridge,MA,
703,1686 Mass. Ave.,1686 Massachusetts Ave,Cambridge,MA,
704,550 Massachusetts Ave.,550 Massachusetts Ave.,Cambridge,MA,
705,562 Cambridge St,562 Cambridge St,Cambridge,MA,
706,1933 Mass. Ave.,1933 Massachusetts Ave,Cambridge,MA,
707,1307 Cambridge Street,1307 Cambridge Street,Cambridge,MA,
708,608 Main Street,608 Main Street,Cambridge,MA,
710,149 Alewife Brook Pkwy,149 Alewife Brook Pkwy,Cambridge,MA,
711,740 Cambridge St,740 Cambridge St,Cambridge,MA,
712,846A Massachusetts Ave,846A Massachusetts Ave,Cambridge,MA,
713,2150 Mass. Ave.,2150 Massachusetts Ave,Cambridge,MA,
714,389 Cambridge St,389 Cambridge St,Cambridge,MA,
715,726 Cambridge St,726 Cambridge St,Cambridge,MA,
716,408 Cambridge St,408 Cambridge St,Cambridge,MA,
718,348 Huron Ave.,348 Huron Ave.,Cambridge,MA,
719,2378 Mass. Ave.,2378 Massachusetts Ave,Cambridge,MA,
720,241 Cambridge St,241 Cambridge St,Cambridge,MA,
721,58 Church St,58 Church St,Cambridge,MA,
722,2447 Mass. Ave.,2447 Massachusetts Ave,Cambridge,MA,
727,18 Eliot St.,18 Eliot St.,Cambridge,MA,
729,40 JFK St.,40 JFK St.,Cambridge,MA,
730,318 Third St,318 Third St,Cambridge,MA,
731,1288 Mass. Ave,1288 Massachusetts Ave,Cambridge,MA,
732,548 Massachusetts Ave.,548 Massachusetts Ave.,Cambridge,MA,
733,1688 Mass. Ave.,1688 Massachusetts Ave,Cambridge,MA,
734,908 Massachusetts Ave,908 Massachusetts Ave,Cambridge,MA,
736,962 Cambridge St,962 Cambridge St,Cambridge,MA,
737,1030 Massachusetts Ave,1030 Massachusetts Ave,Cambridge,MA,
738,15 Dunster St,15 Dunster St,Cambridge,MA,
739,52 Church St,52 Church St,Cambridge,MA,
741,62 Walden St,62 Walden St,Cambridge,MA,
742,2 Bow St,2 Bow St,Cambridge,MA,
744,1912 Mass. Ave.,1912 Massachusetts Ave,Cambridge,MA,
746,1638 Mass. Ave.,1638 Massachusetts Ave,Cambridge,MA,
748,49 Mt. Auburn St,49 Mt. Auburn St,Cambridge,MA,
749,1300 Cambridge Street,1300 Cambridge Street,Cambridge,MA,
750,159 First St,159 First St,Cambridge,MA,
753,1262 Cambridge Street,1262 Cambridge Street,Cambridge,MA,
754,45 Prospect St.,45 Prospect St.,Cambridge,MA,
756,501 Cambridge St.,501 Cambridge St.,Cambridge,MA,
757,844 Main St,844 Main St,Cambridge,MA,
760,1737 Mass. Ave,1737 Massachusetts Ave,Cambridge,MA,
761,1034 Cambridge St,1034 Cambridge St,Cambridge,MA,
762,1782 Mass. Ave.,1782 Massachusetts Ave,Cambridge,MA,
763,1770 Mass. Ave.,1770 Massachusetts Ave,Cambridge,MA,
765,2263 Mass. Ave,2263 Massachusetts Ave,Cambridge,MA,
766,2485 Mass. Ave.,2485 Massachusetts Ave,Cambridge,MA,
767,1052 Cambridge Street,1052 Cambridge Street,Cambridge,MA,
770,75 Ames Street,75 Ames Street,Cambridge,MA,
771,502 Massachusetts Ave.,502 Massachusetts Ave.,Cambridge,MA,
772,359 Huron Ave.,359 Huron Ave.,Cambridge,MA,
773,579 Massachusetts Ave.,579 Massachusetts Ave.,Cambridge,MA,
774,1786 Mass. Ave.,1786 Massachusetts Ave,Cambridge,MA,
776,1735 Mass. Ave.,1735 Massachusetts Ave,Cambridge,MA,
777,2088 Mass Ave,2088 Massachusetts Ave,Cambridge,MA,
778,2166 Mass Ave.,2166 Massachusetts Ave,Cambridge,MA,
780,5 Bennett St.,5 Bennett St.,Cambridge,MA,
781,3 Glassworks Ave.,3 Glassworks Ave.,Cambridge,MA,
782,37 JFK St.,37 JFK St.,Cambridge,MA,
785,60 Church St.,60 Church St.,Cambridge,MA,
786,2284 Mass Ave.,2284 Massachusetts Ave,Cambridge,MA,
787,270 Broadway,270 Broadway,Cambridge,MA,
788,1248 Cambridge Street,1248 Cambridge Street,Cambridge,MA,
789,1670 Mass Ave.,1670 Massachusetts Ave,Cambridge,MA,
790,130 Smith Place,130 Smith Place,Cambridge,MA,
791,283 Broadway,283 Broadway,Cambridge,MA,
792,766 Cambridge St,766 Cambridge St,Cambridge,MA,
794,27 Mt. Auburn St,27 Mt. Auburn St,Cambridge,MA,
796,1923 Mass. Ave.,1923 Massachusetts Ave,Cambridge,MA,
797,2261 Mass. Ave,2261 Massachusetts Ave,Cambridge,MA,
799,450 Cambridge St,450 Cambridge St,Cambridge,MA,
800,1 Arrow St.,1 Arrow St.,Cambridge,MA,
803,474 Massachusetts Ave,474 Massachusetts Ave,Cambridge,MA,
804,"120 Vassar St., MIT duPont Gym","120 Vassar St., MIT duPont Gym",Cambridge,MA,
